{
    "links": {
        "self": "http://www.neowsapp.com/rest/v1/neo/3666928?api_key=iIulBulltgU6a56xZRHN4H3l9WmuAYTsLGpBGhQ2"
    },
    "id": "3666928",
    "neo_reference_id": "3666928",
    "name": "(2014 FH54)",
    "designation": "2014 FH54",
    "nasa_jpl_url": "http://ssd.jpl.nasa.gov/sbdb.cgi?sstr=3666928",
    "absolute_magnitude_h": 22.2,
    "estimated_diameter": {
        "kilometers": {
            "estimated_diameter_min": 0.096506147,
            "estimated_diameter_max": 0.2157943048
        },
        "meters": {
            "estimated_diameter_min": 96.5061469579,
            "estimated_diameter_max": 215.7943048444
        },
        "miles": {
            "estimated_diameter_min": 0.059966121,
            "estimated_diameter_max": 0.134088323
        },
        "feet": {
            "estimated_diameter_min": 316.6212271853,
            "estimated_diameter_max": 707.9865871058
        }
    },
    "is_potentially_hazardous_asteroid": false,
    "close_approach_data": [
        {
            "close_approach_date": "2014-03-20",
            "close_approach_date_full": "2014-Mar-20 09:49",
            "epoch_date_close_approach": 1395308940000,
            "relative_velocity": {
                "kilometers_per_second": "32.0128677246",
                "kilometers_per_hour": "115246.3238085992",
                "miles_per_hour": "71609.5838131821"
            },
            "miss_distance": {
                "astronomical": "0.1035642002",
                "lunar": "40.2864738778",
                "kilometers": "15492983.758173574",
                "miles": "9626893.7023363612"
            },
            "orbiting_body": "Earth"
        }
    ],
    "orbital_data": {
        "orbit_id": "6",
        "orbit_determination_date": "2017-04-06 08:41:49",
        "first_observation_date": "2014-03-31",
        "last_observation_date": "2014-04-07",
        "data_arc_in_days": 7,
        "observations_used": 29,
        "orbit_uncertainty": "9",
        "minimum_orbit_intersection": ".0827473",
        "jupiter_tisserand_invariant": "2.600",
        "epoch_osculation": "2456750.5",
        "eccentricity": ".8703280490615047",
        "semi_major_axis": "2.720220371820317",
        "inclination": "15.31811642013255",
        "ascending_node_longitude": "13.98983297903605",
        "orbital_period": "1638.7192673004",
        "perihelion_distance": ".3527362825965795",
        "perihelion_argument": "48.63102230366993",
        "aphelion_distance": "5.087704461044055",
        "perihelion_time": "2456695.620669883328",
        "mean_anomaly": "12.0560972438852",
        "mean_motion": ".2196837537603731",
        "equinox": "J2000",
        "orbit_class": {
            "orbit_class_type": "APO",
            "orbit_class_description": "Near-Earth asteroid orbits which cross the Earth’s orbit similar to that of 1862 Apollo",
            "orbit_class_range": "a (semi-major axis) > 1.0 AU; q (perihelion) < 1.017 AU"
        }
    },
    "is_sentry_object": false
}